CCSDS_OMM_VERS = 2.0
CREATION_DATE  = 
ORIGINATOR     = 

OBJECT_NAME    = ATLAS CENTAUR 2
OBJECT_ID      = 1963-047A
CENTER_NAME    = EARTH
REF_FRAME      = TEME
TIME_SYSTEM    = UTC
MEAN_ELEMENT_THEORY = SGP/SGP4

EPOCH          = 2025-12-21T11:49:40.007424
MEAN_MOTION    = 14.11796721
ECCENTRICITY   = .05487763
INCLINATION    = 30.3531
RA_OF_ASC_NODE = 272.5653
ARG_OF_PERICENTER = 111.2809
MEAN_ANOMALY   = 254.7270

EPHEMERIS_TYPE = 0
CLASSIFICATION_TYPE = U
NORAD_CAT_ID   = 694
ELEMENT_SET_NO = 999
REV_AT_EPOCH   = 12056
BSTAR          = .2102427E-3
MEAN_MOTION_DOT = .1802E-4
MEAN_MOTION_DDOT = 0

CCSDS_OMM_VERS = 2.0
CREATION_DATE  = 
ORIGINATOR     = 

OBJECT_NAME    = THOR AGENA D R/B
OBJECT_ID      = 1964-002A
CENTER_NAME    = EARTH
REF_FRAME      = TEME
TIME_SYSTEM    = UTC
MEAN_ELEMENT_THEORY = SGP/SGP4

EPOCH          = 2025-12-21T12:20:27.464064
MEAN_MOTION    = 14.33964513
ECCENTRICITY   = .00337033
INCLINATION    = 99.1217
RA_OF_ASC_NODE = 359.6074
ARG_OF_PERICENTER = 125.1341
MEAN_ANOMALY   = 235.3008

EPHEMERIS_TYPE = 0
CLASSIFICATION_TYPE = U
NORAD_CAT_ID   = 733
ELEMENT_SET_NO = 999
REV_AT_EPOCH   = 22709
BSTAR          = .78975815E-4
MEAN_MOTION_DOT = .173E-5
MEAN_MOTION_DDOT = 0

CCSDS_OMM_VERS = 2.0
CREATION_DATE  = 
ORIGINATOR     = 

OBJECT_NAME    = SL-3 R/B
OBJECT_ID      = 1964-053B
CENTER_NAME    = EARTH
REF_FRAME      = TEME
TIME_SYSTEM    = UTC
MEAN_ELEMENT_THEORY = SGP/SGP4

EPOCH          = 2025-12-21T14:32:59.530848
MEAN_MOTION    = 14.61282253
ECCENTRICITY   = .00745949
INCLINATION    = 65.0748
RA_OF_ASC_NODE = 200.1429
ARG_OF_PERICENTER = 317.4411
MEAN_ANOMALY   = 42.0922

EPHEMERIS_TYPE = 0
CLASSIFICATION_TYPE = U
NORAD_CAT_ID   = 877
ELEMENT_SET_NO = 999
REV_AT_EPOCH   = 25538
BSTAR          = .49308386E-4
MEAN_MOTION_DOT = .128E-5
MEAN_MOTION_DDOT = 0

CCSDS_OMM_VERS = 2.0
CREATION_DATE  = 
ORIGINATOR     = 

OBJECT_NAME    = SL-8 R/B
OBJECT_ID      = 1967-045B
CENTER_NAME    = EARTH
REF_FRAME      = TEME
TIME_SYSTEM    = UTC
MEAN_ELEMENT_THEORY = SGP/SGP4

EPOCH          = 2025-12-21T12:18:24.596352
MEAN_MOTION    = 14.45545713
ECCENTRICITY   = .00638542
INCLINATION    = 74.0104
RA_OF_ASC_NODE = 134.0808
ARG_OF_PERICENTER = 161.2607
MEAN_ANOMALY   = 199.0923

EPHEMERIS_TYPE = 0
CLASSIFICATION_TYPE = U
NORAD_CAT_ID   = 2802
ELEMENT_SET_NO = 999
REV_AT_EPOCH   = 7772
BSTAR          = .1064865E-3
MEAN_MOTION_DOT = .357E-5
MEAN_MOTION_DDOT = 0

CCSDS_OMM_VERS = 2.0
CREATION_DATE  = 
ORIGINATOR     = 

OBJECT_NAME    = SL-8 R/B
OBJECT_ID      = 1968-040B
CENTER_NAME    = EARTH
REF_FRAME      = TEME
TIME_SYSTEM    = UTC
MEAN_ELEMENT_THEORY = SGP/SGP4

EPOCH          = 2025-12-21T08:42:04.295808
MEAN_MOTION    = 15.02581325
ECCENTRICITY   = .00259416
INCLINATION    = 74.0314
RA_OF_ASC_NODE = 113.6603
ARG_OF_PERICENTER = 313.7136
MEAN_ANOMALY   = 46.1903

EPHEMERIS_TYPE = 0
CLASSIFICATION_TYPE = U
NORAD_CAT_ID   = 3230
ELEMENT_SET_NO = 999
REV_AT_EPOCH   = 7824
BSTAR          = .21919852E-3
MEAN_MOTION_DOT = .2896E-4
MEAN_MOTION_DDOT = 0

CCSDS_OMM_VERS = 2.0
CREATION_DATE  = 
ORIGINATOR     = 

OBJECT_NAME    = OAO 2
OBJECT_ID      = 1968-110A
CENTER_NAME    = EARTH
REF_FRAME      = TEME
TIME_SYSTEM    = UTC
MEAN_ELEMENT_THEORY = SGP/SGP4

EPOCH          = 2025-12-21T06:34:07.610880
MEAN_MOTION    = 14.47249092
ECCENTRICITY   = .0006069
INCLINATION    = 34.9949
RA_OF_ASC_NODE = 343.0191
ARG_OF_PERICENTER = 286.3283
MEAN_ANOMALY   = 73.6740

EPHEMERIS_TYPE = 0
CLASSIFICATION_TYPE = U
NORAD_CAT_ID   = 3597
ELEMENT_SET_NO = 999
REV_AT_EPOCH   = 773
BSTAR          = .60603E-4
MEAN_MOTION_DOT = .206E-5
MEAN_MOTION_DDOT = 0

CCSDS_OMM_VERS = 2.0
CREATION_DATE  = 
ORIGINATOR     = 

OBJECT_NAME    = ISIS 1
OBJECT_ID      = 1969-009A
CENTER_NAME    = EARTH
REF_FRAME      = TEME
TIME_SYSTEM    = UTC
MEAN_ELEMENT_THEORY = SGP/SGP4

EPOCH          = 2025-12-21T11:14:45.610080
MEAN_MOTION    = 11.30358098
ECCENTRICITY   = .17069669
INCLINATION    = 88.4489
RA_OF_ASC_NODE = 163.8414
ARG_OF_PERICENTER = 247.0554
MEAN_ANOMALY   = 94.1857

EPHEMERIS_TYPE = 0
CLASSIFICATION_TYPE = U
NORAD_CAT_ID   = 3669
ELEMENT_SET_NO = 999
REV_AT_EPOCH   = 33969
BSTAR          = .13414703E-3
MEAN_MOTION_DOT = .185E-5
MEAN_MOTION_DDOT = 0

CCSDS_OMM_VERS = 2.0
CREATION_DATE  = 
ORIGINATOR     = 

OBJECT_NAME    = SERT 2
OBJECT_ID      = 1970-009A
CENTER_NAME    = EARTH
REF_FRAME      = TEME
TIME_SYSTEM    = UTC
MEAN_ELEMENT_THEORY = SGP/SGP4

EPOCH          = 2025-12-21T12:11:10.362912
MEAN_MOTION    = 13.58718923
ECCENTRICITY   = .00051637
INCLINATION    = 99.2664
RA_OF_ASC_NODE = 297.9194
ARG_OF_PERICENTER = 14.6007
MEAN_ANOMALY   = 103.2195

EPHEMERIS_TYPE = 0
CLASSIFICATION_TYPE = U
NORAD_CAT_ID   = 4327
ELEMENT_SET_NO = 999
REV_AT_EPOCH   = 76927
BSTAR          = .87832254E-4
MEAN_MOTION_DOT = .23E-6
MEAN_MOTION_DDOT = 0

CCSDS_OMM_VERS = 2.0
CREATION_DATE  = 
ORIGINATOR     = 

OBJECT_NAME    = SL-3 R/B
OBJECT_ID      = 1971-028B
CENTER_NAME    = EARTH
REF_FRAME      = TEME
TIME_SYSTEM    = UTC
MEAN_ELEMENT_THEORY = SGP/SGP4

EPOCH          = 2025-12-21T13:22:55.980768
MEAN_MOTION    = 15.54926568
ECCENTRICITY   = .00192334
INCLINATION    = 81.2375
RA_OF_ASC_NODE = 148.0670
ARG_OF_PERICENTER = 208.8296
MEAN_ANOMALY   = 151.1893

EPHEMERIS_TYPE = 0
CLASSIFICATION_TYPE = U
NORAD_CAT_ID   = 5118
ELEMENT_SET_NO = 999
REV_AT_EPOCH   = 97650
BSTAR          = .43514192E-3
MEAN_MOTION_DOT = .29421E-3
MEAN_MOTION_DDOT = 0

CCSDS_OMM_VERS = 2.0
CREATION_DATE  = 
ORIGINATOR     = 

OBJECT_NAME    = ASTEX 1
OBJECT_ID      = 1971-089A
CENTER_NAME    = EARTH
REF_FRAME      = TEME
TIME_SYSTEM    = UTC
MEAN_ELEMENT_THEORY = SGP/SGP4

EPOCH          = 2025-12-21T09:30:45.489312
MEAN_MOTION    = 14.50652145
ECCENTRICITY   = .00152815
INCLINATION    = 92.7147
RA_OF_ASC_NODE = 126.4202
ARG_OF_PERICENTER = 357.5843
MEAN_ANOMALY   = 2.5287

EPHEMERIS_TYPE = 0
CLASSIFICATION_TYPE = U
NORAD_CAT_ID   = 5560
ELEMENT_SET_NO = 999
REV_AT_EPOCH   = 85095
BSTAR          = .120816E-3
MEAN_MOTION_DOT = .474E-5
MEAN_MOTION_DDOT = 0

CCSDS_OMM_VERS = 2.0
CREATION_DATE  = 
ORIGINATOR     = 

OBJECT_NAME    = SL-8 R/B
OBJECT_ID      = 1971-119B
CENTER_NAME    = EARTH
REF_FRAME      = TEME
TIME_SYSTEM    = UTC
MEAN_ELEMENT_THEORY = SGP/SGP4

EPOCH          = 2025-12-21T07:49:41.376576
MEAN_MOTION    = 14.35929635
ECCENTRICITY   = .05587782
INCLINATION    = 73.8890
RA_OF_ASC_NODE = 321.9879
ARG_OF_PERICENTER = 304.5298
MEAN_ANOMALY   = 50.4292

EPHEMERIS_TYPE = 0
CLASSIFICATION_TYPE = U
NORAD_CAT_ID   = 5730
ELEMENT_SET_NO = 999
REV_AT_EPOCH   = 64423
BSTAR          = .55385546E-3
MEAN_MOTION_DOT = .1064E-3
MEAN_MOTION_DDOT = 0

CCSDS_OMM_VERS = 2.0
CREATION_DATE  = 
ORIGINATOR     = 

OBJECT_NAME    = OAO 3 (COPERNICUS)
OBJECT_ID      = 1972-065A
CENTER_NAME    = EARTH
REF_FRAME      = TEME
TIME_SYSTEM    = UTC
MEAN_ELEMENT_THEORY = SGP/SGP4

EPOCH          = 2025-12-21T12:25:17.360256
MEAN_MOTION    = 14.59913430
ECCENTRICITY   = .00071541
INCLINATION    = 35.0070
RA_OF_ASC_NODE = 22.6634
ARG_OF_PERICENTER = 243.0707
MEAN_ANOMALY   = 273.2162

EPHEMERIS_TYPE = 0
CLASSIFICATION_TYPE = U
NORAD_CAT_ID   = 6153
ELEMENT_SET_NO = 999
REV_AT_EPOCH   = 83476
BSTAR          = .67004073E-4
MEAN_MOTION_DOT = .305E-5
MEAN_MOTION_DDOT = 0

