ATLAS CENTAUR 2         
1 00694U 63047A   25355.49282416  .00001802  00000+0  21024-3 0  9997
2 00694  30.3531 272.5653 0548776 111.2809 254.7270 14.11796721120565
THOR AGENA D R/B        
1 00733U 64002A   25355.51420676  .00000173  00000+0  78976-4 0  9997
2 00733  99.1217 359.6074 0033703 125.1341 235.3008 14.33964513227091
SL-3 R/B                
1 00877U 64053B   25355.60624457  .00000128  00000+0  49308-4 0  9992
2 00877  65.0748 200.1429 0074594 317.4411  42.0922 14.61282253255388
SL-8 R/B                
1 02802U 67045B   25355.51278468  .00000357  00000+0  10649-3 0  9992
2 02802  74.0104 134.0808 0063854 161.2607 199.0923 14.45545713 77728
SL-8 R/B                
1 03230U 68040B   25355.36254972  .00002896  00000+0  21920-3 0  9995
2 03230  74.0314 113.6603 0025941 313.7136  46.1903 15.02581325 78240
OAO 2                   
1 03597U 68110A   25355.27369920  .00000206  00000+0  60603-4 0  9994
2 03597  34.9949 343.0191 0006069 286.3283  73.6740 14.47249092  7734
ISIS 1                  
1 03669U 69009A   25355.46858345  .00000185  00000+0  13415-3 0  9991
2 03669  88.4489 163.8414 1706966 247.0554  94.1857 11.30358098339698
SERT 2                  
1 04327U 70009A   25355.50775883  .00000023  00000+0  87832-4 0  9991
2 04327  99.2664 297.9194 0005163  14.6007 103.2195 13.58718923769277
SL-3 R/B                
1 05118U 71028B   25355.55759237  .00029421  00000+0  43514-3 0  9993
2 05118  81.2375 148.0670 0019233 208.8296 151.1893 15.54926568976508
ASTEX 1                 
1 05560U 71089A   25355.39635983  .00000474  00000+0  12082-3 0  9997
2 05560  92.7147 126.4202 0015281 357.5843   2.5287 14.50652145850951
SL-8 R/B                
1 05730U 71119B   25355.32617334  .00010640  00000+0  55386-3 0  9993
2 05730  73.8890 321.9879 0558778 304.5298  50.4292 14.35929635644230
OAO 3 (COPERNICUS)      
1 06153U 72065A   25355.51756204  .00000305  00000+0  67004-4 0  9993
2 06153  35.0070  22.6634 0007154 243.0707 273.2162 14.59913430834765
